IRIDIUM 39              
1 25042U 97069D   25196.50690714  .00000408  00000+0  10157-3 0  9997
2 25042  86.3923 198.9942 0016667 205.7447 154.2929 14.49242630453068
IRIDIUM 38              
1 25043U 97069E   25196.55715306  .00000269  00000+0  82166-4 0  9993
2 25043  86.3947 221.2217 0003148  52.2874 307.8609 14.38133795450033
IRIDIUM 42              
1 25077U 97077A   25196.59819917  .00000262  00000+0  82916-4 0  9992
2 25077  86.3947 227.4083 0002683  75.6249 284.5245 14.36367946445279
IRIDIUM 44              
1 25078U 97077B   25196.54545639  .00000258  00000+0  75240-4 0  9992
2 25078  86.3959 209.2856 0001013  35.6893 324.4373 14.40257241447815
IRIDIUM 45              
1 25104U 97082A   25196.57706546  .00013008  00000+0  45989-3 0  9990
2 25104  86.3565  34.0937 0113478 224.3774 134.8336 15.23020489456362
IRIDIUM 24              
1 25105U 97082B   25196.62081330  .00000340  00000+0  97432-4 0  9990
2 25105  86.3879  68.2377 0011156 355.3714   4.7381 14.42119747447313
IRIDIUM 51              
1 25262U 98018A   25196.54911216  .00033606  00000+0  70708-3 0  9997
2 25262  86.3805  41.7687 0085420 139.8516 220.9093 15.41213148451391
IRIDIUM 57              
1 25273U 98019B   25196.53450507  .00000280  00000+0  89643-4 0  9991
2 25273  86.3989 133.3900 0002249  83.3739 276.7714 14.35907780428858
